ONEWEB-0631             
1 55171U 23004AH  25283.31570392  .00000090  00000+0  19680-3 0  9993
2 55171  87.9229  25.0505 0002383 100.9029 259.2371 13.18686952136741
ONEWEB-0709             
1 55172U 23004AJ  25283.33243094  .00000428  00000+0  11729-2 0  9992
2 55172  87.8812  70.8523 0002398 114.0553 246.0826 13.11415385133122
ONEWEB-0710             
1 55173U 23004AK  25283.29785231  .00000037  00000+0  61713-4 0  9998
2 55173  87.9089  55.5682 0001782  90.4569 269.6767 13.17650862134679
ONEWEB-0711             
1 55174U 23004AL  25282.46433539  .00000048  00000+0  10075-3 0  9994
2 55174  87.8815  70.9941 0002065  73.2867 286.8488 13.11417731132972
ONEWEB-0713             
1 55175U 23004AM  25283.32225262  .00000499  00000+0  13734-2 0  9997
2 55175  87.8808  70.8282 0001844  85.2400 274.8939 13.11416627133075
ONEWEB-0715             
1 55176U 23004AN  25283.31716998  .00000369  00000+0  10055-2 0  9997
2 55176  87.8809  70.8292 0002355  98.7024 261.4371 13.11416598133111
ONEWEB-0716             
1 55177U 23004AP  25283.29109045  .00000051  00000+0  99020-4 0  9993
2 55177  87.9089  55.5692 0001447  99.1014 261.0281 13.17652094134679
ONEWEB-0717             
1 55178U 23004AQ  25282.81859912  .00000064  00000+0  13128-3 0  9994
2 55178  87.9098  55.6291 0002222  81.1985 278.9398 13.17647231134668
ONEWEB-0719             
1 55179U 23004AR  25282.44905646 -.00000038  00000+0 -13203-3 0  9997
2 55179  87.9095  55.6848 0001453  93.0532 267.0766 13.17649064134562
ONEWEB-0530             
1 55796U 23029A   25283.16878486 -.00000154  00000+0 -41120-3 0  9998
2 55796  87.9227 324.3449 0001975  80.9856 279.1501 13.20772530128147
ONEWEB-0534             
1 55797U 23029B   25283.15616224  .00000040  00000+0  66434-4 0  9996
2 55797  87.9221 324.3499 0001797  97.9781 262.1557 13.20772877128141
ONEWEB-0556             
1 55798U 23029C   25283.16248210 -.00000047  00000+0 -14664-3 0  9990
2 55798  87.9226 324.3455 0001221  81.4155 278.7117 13.20773577128147
ONEWEB-0562             
1 55799U 23029D   25283.14987334  .00000092  00000+0  19334-3 0  9993
2 55799  87.9223 324.3337 0001760  67.9304 292.2017 13.20771601128143
ONEWEB-0563             
1 55800U 23029E   25283.14353771  .00000098  00000+0  20831-3 0  9998
2 55800  87.9233 324.3586 0001667 101.5049 258.6272 13.20772916128138
ONEWEB-0564             
1 55801U 23029F   25283.13722906  .00000089  00000+0  18743-3 0  9997
2 55801  87.9221 324.3392 0001845  84.2946 275.8398 13.20769671128147
ONEWEB-0638             
1 55802U 23029G   25283.19391156 -.00000129  00000+0 -38248-3 0  9992
2 55802  87.9048 339.5661 0001456  88.2198 271.9098 13.14502864126552
ONEWEB-0639             
1 55803U 23029H   25283.21556768  .00000043  00000+0  75105-4 0  9995
2 55803  87.9273 354.7107 0002013 133.9484 226.1815 13.19724532125936
