[{"OBJECT_NAME":"ONEWEB-0631","OBJECT_ID":"2023-004AH","EPOCH":"2025-10-10T07:34:36.818688","MEAN_MOTION":13.18686952,"ECCENTRICITY":0.0002383,"INCLINATION":87.9229,"RA_OF_ASC_NODE":25.0505,"ARG_OF_PERICENTER":100.9029,"MEAN_ANOMALY":259.2371,"EPHEMERIS_TYPE":0,"CLASSIFICATION_TYPE":"U","NORAD_CAT_ID":55171,"ELEMENT_SET_NO":999,"REV_AT_EPOCH":13674,"BSTAR":0.00019680068,"MEAN_MOTION_DOT":9.0e-7,"MEAN_MOTION_DDOT":0},{"OBJECT_NAME":"ONEWEB-0709","OBJECT_ID":"2023-004AJ","EPOCH":"2025-10-10T07:58:42.033216","MEAN_MOTION":13.11415385,"ECCENTRICITY":0.00023983,"INCLINATION":87.8812,"RA_OF_ASC_NODE":70.8523,"ARG_OF_PERICENTER":114.0553,"MEAN_ANOMALY":246.0826,"EPHEMERIS_TYPE":0,"CLASSIFICATION_TYPE":"U","NORAD_CAT_ID":55172,"ELEMENT_SET_NO":999,"REV_AT_EPOCH":13312,"BSTAR":0.0011729035,"MEAN_MOTION_DOT":4.28e-6,"MEAN_MOTION_DDOT":0},{"OBJECT_NAME":"ONEWEB-0710","OBJECT_ID":"2023-004AK","EPOCH":"2025-10-10T07:08:54.439584","MEAN_MOTION":13.17650862,"ECCENTRICITY":0.00017825,"INCLINATION":87.9089,"RA_OF_ASC_NODE":55.5682,"ARG_OF_PERICENTER":90.4569,"MEAN_ANOMALY":269.6767,"EPHEMERIS_TYPE":0,"CLASSIFICATION_TYPE":"U","NORAD_CAT_ID":55173,"ELEMENT_SET_NO":999,"REV_AT_EPOCH":13467,"BSTAR":6.1712754e-5,"MEAN_MOTION_DOT":3.7e-7,"MEAN_MOTION_DDOT":0},{"OBJECT_NAME":"ONEWEB-0711","OBJECT_ID":"2023-004AL","EPOCH":"2025-10-09T11:08:38.577696","MEAN_MOTION":13.11417731,"ECCENTRICITY":0.0002065,"INCLINATION":87.8815,"RA_OF_ASC_NODE":70.9941,"ARG_OF_PERICENTER":73.2867,"MEAN_ANOMALY":286.8488,"EPHEMERIS_TYPE":0,"CLASSIFICATION_TYPE":"U","NORAD_CAT_ID":55174,"ELEMENT_SET_NO":999,"REV_AT_EPOCH":13297,"BSTAR":0.00010075,"MEAN_MOTION_DOT":4.8e-7,"MEAN_MOTION_DDOT":0},{"OBJECT_NAME":"ONEWEB-0713","OBJECT_ID":"2023-004AM","EPOCH":"2025-10-10T07:44:02.626368","MEAN_MOTION":13.11416627,"ECCENTRICITY":0.00018447,"INCLINATION":87.8808,"RA_OF_ASC_NODE":70.8282,"ARG_OF_PERICENTER":85.24,"MEAN_ANOMALY":274.8939,"EPHEMERIS_TYPE":0,"CLASSIFICATION_TYPE":"U","NORAD_CAT_ID":55175,"ELEMENT_SET_NO":999,"REV_AT_EPOCH":13307,"BSTAR":0.0013734133,"MEAN_MOTION_DOT":4.99e-6,"MEAN_MOTION_DDOT":0},{"OBJECT_NAME":"ONEWEB-0715","OBJECT_ID":"2023-004AN","EPOCH":"2025-10-10T07:36:43.486272","MEAN_MOTION":13.11416598,"ECCENTRICITY":0.0002355,"INCLINATION":87.8809,"RA_OF_ASC_NODE":70.8292,"ARG_OF_PERICENTER":98.7024,"MEAN_ANOMALY":261.4371,"EPHEMERIS_TYPE":0,"CLASSIFICATION_TYPE":"U","NORAD_CAT_ID":55176,"ELEMENT_SET_NO":999,"REV_AT_EPOCH":13311,"BSTAR":0.0010054689,"MEAN_MOTION_DOT":3.69e-6,"MEAN_MOTION_DDOT":0},{"OBJECT_NAME":"ONEWEB-0716","OBJECT_ID":"2023-004AP","EPOCH":"2025-10-10T06:59:10.214880","MEAN_MOTION":13.17652094,"ECCENTRICITY":0.00014479,"INCLINATION":87.9089,"RA_OF_ASC_NODE":55.5692,"ARG_OF_PERICENTER":99.1014,"MEAN_ANOMALY":261.0281,"EPHEMERIS_TYPE":0,"CLASSIFICATION_TYPE":"U","NORAD_CAT_ID":55177,"ELEMENT_SET_NO":999,"REV_AT_EPOCH":13467,"BSTAR":9.9019592e-5,"MEAN_MOTION_DOT":5.1e-7,"MEAN_MOTION_DDOT":0},{"OBJECT_NAME":"ONEWEB-0717","OBJECT_ID":"2023-004AQ","EPOCH":"2025-10-09T19:38:46.963968","MEAN_MOTION":13.17647231,"ECCENTRICITY":0.00022224,"INCLINATION":87.9098,"RA_OF_ASC_NODE":55.6291,"ARG_OF_PERICENTER":81.1985,"MEAN_ANOMALY":278.9398,"EPHEMERIS_TYPE":0,"CLASSIFICATION_TYPE":"U","NORAD_CAT_ID":55178,"ELEMENT_SET_NO":999,"REV_AT_EPOCH":13466,"BSTAR":0.00013128077,"MEAN_MOTION_DOT":6.4e-7,"MEAN_MOTION_DDOT":0},{"OBJECT_NAME":"ONEWEB-0719","OBJECT_ID":"2023-004AR","EPOCH":"2025-10-09T10:46:38.478144","MEAN_MOTION":13.17649064,"ECCENTRICITY":0.0001453,"INCLINATION":87.9095,"RA_OF_ASC_NODE":55.6848,"ARG_OF_PERICENTER":93.0532,"MEAN_ANOMALY":267.0766,"EPHEMERIS_TYPE":0,"CLASSIFICATION_TYPE":"U","NORAD_CAT_ID":55179,"ELEMENT_SET_NO":999,"REV_AT_EPOCH":13456,"BSTAR":-0.00013203,"MEAN_MOTION_DOT":-3.8e-7,"MEAN_MOTION_DDOT":0},{"OBJECT_NAME":"ONEWEB-0530","OBJECT_ID":"2023-029A","EPOCH":"2025-10-10T04:03:03.011904","MEAN_MOTION":13.2077253,"ECCENTRICITY":0.00019752,"INCLINATION":87.9227,"RA_OF_ASC_NODE":324.3449,"ARG_OF_PERICENTER":80.9856,"MEAN_ANOMALY":279.1501,"EPHEMERIS_TYPE":0,"CLASSIFICATION_TYPE":"U","NORAD_CAT_ID":55796,"ELEMENT_SET_NO":999,"REV_AT_EPOCH":12814,"BSTAR":-0.0004112027,"MEAN_MOTION_DOT":-1.54e-6,"MEAN_MOTION_DDOT":0},{"OBJECT_NAME":"ONEWEB-0534","OBJECT_ID":"2023-029B","EPOCH":"2025-10-10T03:44:52.417536","MEAN_MOTION":13.20772877,"ECCENTRICITY":0.00017975,"INCLINATION":87.9221,"RA_OF_ASC_NODE":324.3499,"ARG_OF_PERICENTER":97.9781,"MEAN_ANOMALY":262.1557,"EPHEMERIS_TYPE":0,"CLASSIFICATION_TYPE":"U","NORAD_CAT_ID":55797,"ELEMENT_SET_NO":999,"REV_AT_EPOCH":12814,"BSTAR":6.6433932e-5,"MEAN_MOTION_DOT":4.0e-7,"MEAN_MOTION_DDOT":0},{"OBJECT_NAME":"ONEWEB-0556","OBJECT_ID":"2023-029C","EPOCH":"2025-10-10T03:53:58.453440","MEAN_MOTION":13.20773577,"ECCENTRICITY":0.00012214,"INCLINATION":87.9226,"RA_OF_ASC_NODE":324.3455,"ARG_OF_PERICENTER":81.4155,"MEAN_ANOMALY":278.7117,"EPHEMERIS_TYPE":0,"CLASSIFICATION_TYPE":"U","NORAD_CAT_ID":55798,"ELEMENT_SET_NO":999,"REV_AT_EPOCH":12814,"BSTAR":-0.0001466397,"MEAN_MOTION_DOT":-4.7e-7,"MEAN_MOTION_DDOT":0},{"OBJECT_NAME":"ONEWEB-0562","OBJECT_ID":"2023-029D","EPOCH":"2025-10-10T03:35:49.056576","MEAN_MOTION":13.20771601,"ECCENTRICITY":0.00017605,"INCLINATION":87.9223,"RA_OF_ASC_NODE":324.3337,"ARG_OF_PERICENTER":67.9304,"MEAN_ANOMALY":292.2017,"EPHEMERIS_TYPE":0,"CLASSIFICATION_TYPE":"U","NORAD_CAT_ID":55799,"ELEMENT_SET_NO":999,"REV_AT_EPOCH":12814,"BSTAR":0.00019334004,"MEAN_MOTION_DOT":9.2e-7,"MEAN_MOTION_DDOT":0},{"OBJECT_NAME":"ONEWEB-0563","OBJECT_ID":"2023-029E","EPOCH":"2025-10-10T03:26:41.658144","MEAN_MOTION":13.20772916,"ECCENTRICITY":0.00016677,"INCLINATION":87.9233,"RA_OF_ASC_NODE":324.3586,"ARG_OF_PERICENTER":101.5049,"MEAN_ANOMALY":258.6272,"EPHEMERIS_TYPE":0,"CLASSIFICATION_TYPE":"U","NORAD_CAT_ID":55800,"ELEMENT_SET_NO":999,"REV_AT_EPOCH":12813,"BSTAR":0.00020830937,"MEAN_MOTION_DOT":9.8e-7,"MEAN_MOTION_DDOT":0},{"OBJECT_NAME":"ONEWEB-0564","OBJECT_ID":"2023-029F","EPOCH":"2025-10-10T03:17:36.590784","MEAN_MOTION":13.20769671,"ECCENTRICITY":0.00018453,"INCLINATION":87.9221,"RA_OF_ASC_NODE":324.3392,"ARG_OF_PERICENTER":84.2946,"MEAN_ANOMALY":275.8398,"EPHEMERIS_TYPE":0,"CLASSIFICATION_TYPE":"U","NORAD_CAT_ID":55801,"ELEMENT_SET_NO":999,"REV_AT_EPOCH":12814,"BSTAR":0.00018743057,"MEAN_MOTION_DOT":8.9e-7,"MEAN_MOTION_DDOT":0},{"OBJECT_NAME":"ONEWEB-0638","OBJECT_ID":"2023-029G","EPOCH":"2025-10-10T04:39:13.958784","MEAN_MOTION":13.14502864,"ECCENTRICITY":0.00014561,"INCLINATION":87.9048,"RA_OF_ASC_NODE":339.5661,"ARG_OF_PERICENTER":88.2198,"MEAN_ANOMALY":271.9098,"EPHEMERIS_TYPE":0,"CLASSIFICATION_TYPE":"U","NORAD_CAT_ID":55802,"ELEMENT_SET_NO":999,"REV_AT_EPOCH":12655,"BSTAR":-0.00038248409,"MEAN_MOTION_DOT":-1.29e-6,"MEAN_MOTION_DDOT":0},{"OBJECT_NAME":"ONEWEB-0639","OBJECT_ID":"2023-029H","EPOCH":"2025-10-10T05:10:25.047552","MEAN_MOTION":13.19724532,"ECCENTRICITY":0.00020135,"INCLINATION":87.9273,"RA_OF_ASC_NODE":354.7107,"ARG_OF_PERICENTER":133.9484,"MEAN_ANOMALY":226.1815,"EPHEMERIS_TYPE":0,"CLASSIFICATION_TYPE":"U","NORAD_CAT_ID":55803,"ELEMENT_SET_NO":999,"REV_AT_EPOCH":12593,"BSTAR":7.5104647e-5,"MEAN_MOTION_DOT":4.3e-7,"MEAN_MOTION_DDOT":0}]
